{
"type": "FeatureCollection",
"name": "poudre_post_fire_treatments",
"crs": { "type": "name", "properties": { "name": "urn:ogc:def:crs:OGC:1.3:CRS84" } },
"features": [
{ "type": "Feature", "properties": { "treatment_type": "seeding", "treatment_year": 2021, "area_ha": 45.2 }, "geometry": { "type": "Polygon", "coordinates": [ [ [ -105.68, 40.58 ], [ -105.68, 40.62 ], [ -105.72, 40.62 ], [ -105.72, 40.58 ], [ -105.68, 40.58 ] ] ] } },
{ "type": "Feature", "properties": { "treatment_type": "mulching", "treatment_year": 2021, "area_ha": 12.8 }, "geometry": { "type": "Polygon", "coordinates": [ [ [ -105.62, 40.55 ], [ -105.62, 40.58 ], [ -105.65, 40.58 ], [ -105.65, 40.55 ], [ -105.62, 40.55 ] ] ] } },
{ "type": "Feature", "properties": { "treatment_type": "erosion_barrier", "treatment_year": 2021, "area_ha": 3.1 }, "geometry": { "type": "Polygon", "coordinates": [ [ [ -105.68, 40.52 ], [ -105.68, 40.55 ], [ -105.7, 40.55 ], [ -105.7, 40.52 ], [ -105.68, 40.52 ] ] ] } },
{ "type": "Feature", "properties": { "treatment_type": "seeding", "treatment_year": 2022, "area_ha": 67.4 }, "geometry": { "type": "Polygon", "coordinates": [ [ [ -105.56, 40.6 ], [ -105.56, 40.64 ], [ -105.6, 40.64 ], [ -105.6, 40.6 ], [ -105.56, 40.6 ] ] ] } }
]
}
